NORAD_CAT_ID,OBJECT_NAME,OBJECT_TYPE,EPOCH,MEAN_MOTION,ECCENTRICITY,INCLINATION,RA_OF_ASC_NODE,ARG_OF_PERICENTER,MEAN_ANOMALY,BSTAR,MEAN_MOTION_DOT,MEAN_MOTION_DDOT,TLE_LINE0,TLE_LINE1,TLE_LINE2,SEMIMAJOR_AXIS,PERIOD,APOGEE,PERIGEE,DECAYED
52337.0,STARLINK-3797,PAYLOAD,2022-07-27 06:00:02,15.08859073,0.0001793,53.2165,21.2925,51.6358,68.1093,-0.0025029,-0.00039923,0.0,0 STARLINK-3797,1 52337U 22045G   22208.25002315 -.00039923  00000-0 -25029-2 0  9993,2 52337  53.2165  21.2925 0001793  51.6358  68.1093 15.08859073 16148,6917.821999999999,95.436,540.927,538.447,0.0
52337.0,STARLINK-3797,PAYLOAD,2022-07-27 14:00:01,15.08848968,0.0001797,53.2167,19.7962,52.6161,78.6637,-0.0012005999999999,-0.0001935,0.0,0 STARLINK-3797,1 52337U 22045G   22208.58334491 -.00019350  00000-0 -12006-2 0  9995,2 52337  53.2167  19.7962 0001797  52.6161  78.6637 15.08848968  1303,6917.853,95.437,540.961,538.475,0.0
52337.0,STARLINK-3797,PAYLOAD,2022-07-27 22:00:00,15.08814775,0.0001925,53.2166,18.3012,46.4704,96.4128,0.0032012,0.00050993,0.0,0 STARLINK-3797,1 52337U 22045G   22208.91667824  .00050993  00000-0  32012-2 0  9996,2 52337  53.2166  18.3012 0001925  46.4704  96.4128 15.08814775  1302,6917.956999999999,95.439,541.154,538.491,0.0
52337.0,STARLINK-3797,PAYLOAD,2022-07-28 00:00:00,15.088362699999998,0.0001909,53.2164,17.9268,46.8875,188.8841,0.00077418,0.00012053,0.0,0 STARLINK-3797,1 52337U 22045G   22209.00001157  .00012053  00000-0  77418-3 0  9993,2 52337  53.2164  17.9268 0001909  46.8875 188.8841 15.08836270 16255,6917.892,95.438,541.077,538.436,0.0
52337.0,STARLINK-3797,PAYLOAD,2022-07-28 14:00:01,15.08864046,0.0001776999999999,53.217,15.307,53.0049,113.0586,-0.0013814,-0.0002222,0.0,0 STARLINK-3797,1 52337U 22045G   22209.58334491 -.00022220  00000-0 -13814-2 0  9994,2 52337  53.2170  15.3070 0001777  53.0049 113.0586 15.08864046  1309,6917.807,95.436,540.901,538.443,0.0
52337.0,STARLINK-3797,PAYLOAD,2022-07-28 22:00:00,15.08838228,0.0001865,53.2166,13.8112,46.0489,131.6342,-3.8333e-05,-8.98e-06,0.0,0 STARLINK-3797,1 52337U 22045G   22209.91667824 -.00000898  00000-0 -38333-4 0  9992,2 52337  53.2166  13.8112 0001865  46.0489 131.6342 15.08838228  1301,6917.886,95.438,541.0409999999998,538.461,0.0
52337.0,STARLINK-3797,PAYLOAD,2022-07-29 06:00:00,15.08814921,0.0001621,53.2168,12.3137,50.2042,139.0774,0.0015115999999999,0.00023834,0.0,0 STARLINK-3797,1 52337U 22045G   22210.25001157  .00023834  00000-0  15116-2 0  9997,2 52337  53.2168  12.3137 0001621  50.2042 139.0774 15.08814921 16442,6917.956999999999,95.439,540.943,538.701,0.0
52337.0,STARLINK-3797,PAYLOAD,2022-07-29 14:00:01,15.08848725,0.0001671,53.2169,10.818,51.8088,149.0445,-0.0015440999999999,-0.00024784,0.0,0 STARLINK-3797,1 52337U 22045G   22210.58334491 -.00024784  00000-0 -15441-2 0  9991,2 52337  53.2169  10.8180 0001671  51.8088 149.0445 15.08848725  1300,6917.854,95.437,540.875,538.563,0.0
52337.0,STARLINK-3797,PAYLOAD,2022-07-29 22:00:00,15.08815929,0.0001794,53.2165,9.3227,46.1459,166.3045,0.0025925,0.00041186,0.0,0 STARLINK-3797,1 52337U 22045G   22210.91667824  .00041186  00000-0  25925-2 0  9998,2 52337  53.2165   9.3227 0001794  46.1459 166.3045 15.08815929  1304,6917.954000000002,95.439,541.06,538.578,0.0
52337.0,STARLINK-3797,PAYLOAD,2022-07-30 06:00:00,15.08820825,0.0001609,53.2166,7.8246,52.1026,171.93900000000005,0.0018838,0.00029804,0.0,0 STARLINK-3797,1 52337U 22045G   22211.25001157  .00029804  00000-0  18838-2 0  9995,2 52337  53.2166   7.8246 0001609  52.1026 171.9390 15.08820825 16594,6917.939,95.439,540.9169999999998,538.691,0.0
52337.0,STARLINK-3797,PAYLOAD,2022-07-30 14:00:01,15.08856315,0.0001675,53.2167,6.3291,53.0175,182.6063,-0.0016516999999999,-0.00026491,0.0,0 STARLINK-3797,1 52337U 22045G   22211.58334491 -.00026491  00000-0 -16517-2 0  9994,2 52337  53.2167   6.3291 0001675  53.0175 182.6063 15.08856315  1309,6917.831,95.437,540.854,538.5369999999998,0.0
52337.0,STARLINK-3797,PAYLOAD,2022-07-30 22:00:00,15.08828858,0.0001781999999999,53.2162,4.8336,47.488,199.741,0.0020434,0.00032373,0.0,0 STARLINK-3797,1 52337U 22045G   22211.91667824  .00032373  00000-0  20434-2 0  9997,2 52337  53.2162   4.8336 0001782  47.4880 199.7410 15.08828858  1302,6917.9140000000025,95.438,541.012,538.547,0.0
52337.0,STARLINK-3797,PAYLOAD,2022-07-31 14:00:01,15.08862439,0.0001774,53.2164,1.8401,54.9116,215.516,-0.003935,-0.0006241,0.0,0 STARLINK-3797,1 52337U 22045G   22212.58334491 -.00062410  00000-0 -39350-2 0  9996,2 52337  53.2164   1.8401 0001774  54.9116 215.5160 15.08862439 16791,6917.812,95.436,540.904,538.45,0.0
52337.0,STARLINK-3797,PAYLOAD,2022-07-31 22:00:00,15.08815488,0.0001889,53.2161,0.3446,50.4177,231.605,0.0014906,0.00023499,0.0,0 STARLINK-3797,1 52337U 22045G   22212.91667824  .00023499  00000-0  14906-2 0  9994,2 52337  53.2161   0.3446 0001889  50.4177 231.6050 15.08815488  1306,6917.955,95.439,541.127,538.514,0.0
52337.0,STARLINK-3797,PAYLOAD,2022-08-01 06:00:00,15.08806509,0.0001763,53.2162,358.8464,56.5662,237.0431,0.0027163,0.00043167,0.0,0 STARLINK-3797,1 52337U 22045G   22213.25001157  .00043167  00000-0  27163-2 0  9996,2 52337  53.2162 358.8464 0001763  56.5662 237.0431 15.08806509 16892,6917.983,95.44,541.067,538.628,0.0
52337.0,STARLINK-3797,PAYLOAD,2022-08-01 14:00:01,15.08847306,0.0001874,53.2163,357.3512,55.4377,249.7435,-0.0015142,-0.00024311,0.0,0 STARLINK-3797,1 52337U 22045G   22213.58334491 -.00024311  00000-0 -15142-2 0  9998,2 52337  53.2163 357.3512 0001874  55.4377 249.7435 15.08847306  1309,6917.858,95.437,541.019,538.427,0.0
52337.0,STARLINK-3797,PAYLOAD,2022-08-01 22:00:00,15.08832985,0.0001937,53.2162,355.8555,50.3239,266.4493,0.0010358,0.00016232,0.0,0 STARLINK-3797,1 52337U 22045G   22213.91667824  .00016232  00000-0  10358-2 0  9999,2 52337  53.2162 355.8555 0001937  50.3239 266.4493 15.08832985 16997,6917.901999999999,95.438,541.107,538.427,0.0
52337.0,STARLINK-3797,PAYLOAD,2022-08-02 14:00:01,15.08861424,0.0001927,53.2166,352.8622,54.5513,285.4125,-0.0017042,-0.00027324,0.0,0 STARLINK-3797,1 52337U 22045G   22214.58334491 -.00027324  00000-0 -17042-2 0  9997,2 52337  53.2166 352.8622 0001927  54.5513 285.4125 15.08861424  1305,6917.815,95.436,541.013,538.347,0.0
52337.0,STARLINK-3797,PAYLOAD,2022-08-03 06:00:00,15.08783492,0.0001819,53.2167,349.8683,55.9901,307.1471,0.0032283999999999,0.00051387,0.0,0 STARLINK-3797,1 52337U 22045G   22215.25001157  .00051387  00000-0  32284-2 0  9991,2 52337  53.2167 349.8683 0001819  55.9901 307.1471 15.08783492 17205,6918.053000000001,95.441,541.177,538.66,0.0
52337.0,STARLINK-3797,PAYLOAD,2022-08-03 14:00:01,15.088267300000002,0.0001965,53.2169,348.3733,53.5578,321.1274,-0.0014487,-0.00023262,0.0,0 STARLINK-3797,1 52337U 22045G   22215.58334491 -.00023262  00000-0 -14487-2 0  9995,2 52337  53.2169 348.3733 0001965  53.5578 321.1274 15.08826730  1307,6917.920999999999,95.438,541.145,538.427,0.0
52337.0,STARLINK-3797,PAYLOAD,2022-08-03 22:00:01,15.08822332,0.0001994,53.2167,346.8772,49.9943,336.319,7.772600000000001e-05,9.48e-06,0.0,0 STARLINK-3797,1 52337U 22045G   22215.91668981  .00000948  00000-0  77726-4 0  9997,2 52337  53.2167 346.8772 0001994  49.9943 336.3190 15.08822332  1307,6917.934,95.439,541.179,538.42,0.0
52337.0,STARLINK-3797,PAYLOAD,2022-08-04 14:00:01,15.08840568,0.0001982,53.217,343.8844,53.8408,355.5608,-0.0014700999999999,-0.00023609,0.0,0 STARLINK-3797,1 52337U 22045G   22216.58334491 -.00023609  00000-0 -14701-2 0  9990,2 52337  53.2170 343.8844 0001982  53.8408 355.5608 15.08840568  1303,6917.879,95.438,541.115,538.373,0.0
52337.0,STARLINK-3797,PAYLOAD,2022-08-04 22:00:00,15.08840978,0.0001993,53.2167,342.3881,50.7304,10.2547,-0.00037087,-6.186e-05,0.0,0 STARLINK-3797,1 52337U 22045G   22216.91667824 -.00006186  00000-0 -37087-3 0  9990,2 52337  53.2167 342.3881 0001993  50.7304  10.2547 15.08840978  1309,6917.877,95.437,541.121,538.364,0.0
52337.0,STARLINK-3797,PAYLOAD,2022-08-05 06:00:02,15.08818324,0.0001821,53.2169,340.8901,57.5265,15.1233,0.0030574,0.00048678,0.0,0 STARLINK-3797,1 52337U 22045G   22217.25002315  .00048678  00000-0  30574-2 0  9999,2 52337  53.2169 340.8901 0001821  57.5265  15.1233 15.08818324 17503,6917.946999999999,95.439,541.071,538.552,0.0
52337.0,STARLINK-3797,PAYLOAD,2022-08-05 14:00:01,15.08856278,0.0001962,53.2168,339.3953,54.1157,30.1243,-0.0012450999999999,-0.00020058,0.0,0 STARLINK-3797,1 52337U 22045G   22217.58335648 -.00020058  00000-0 -12451-2 0  9991,2 52337  53.2168 339.3953 0001962  54.1157  30.1243 15.08856278  1300,6917.831,95.437,541.053,538.3380000000002,0.0
52337.0,STARLINK-3797,PAYLOAD,2022-08-05 22:00:00,15.08859167,0.0001953,53.2165,337.8987,51.9157,43.8621,-0.00077183,-0.00012558,0.0,0 STARLINK-3797,1 52337U 22045G   22217.91667824 -.00012558  00000-0 -77183-3 0  9992,2 52337  53.2165 337.8987 0001953  51.9157  43.8621 15.08859167  1303,6917.821999999999,95.436,541.038,538.336,0.0
52337.0,STARLINK-3797,PAYLOAD,2022-08-06 14:00:01,15.08874569,0.000188,53.2164,334.906,53.9825,65.0256,-0.0040406999999999,-0.00064086,0.0,0 STARLINK-3797,1 52337U 22045G   22218.58334491 -.00064086  00000-0 -40407-2 0  9998,2 52337  53.2164 334.9060 0001880  53.9825  65.0256 15.08874569  1308,6917.775,95.435,540.94,538.339,0.0
52337.0,STARLINK-3797,PAYLOAD,2022-08-06 22:00:00,15.08847565,0.0001827,53.2161,333.4093,50.9748,79.6397,-0.0011556,-0.00018636,0.0,0 STARLINK-3797,1 52337U 22045G   22218.91667824 -.00018636  00000-0 -11556-2 0  9997,2 52337  53.2161 333.4093 0001827  50.9748  79.6397 15.08847565  1300,6917.857,95.437,540.986,538.4580000000002,0.0
52337.0,STARLINK-3797,PAYLOAD,2022-08-07 06:00:00,15.08826102,0.0001692,53.2162,331.9116,58.2053,84.0101,0.0023269,0.00036925,0.0,0 STARLINK-3797,1 52337U 22045G   22219.25001157  .00036925  00000-0  23269-2 0  9999,2 52337  53.2162 331.9116 0001692  58.2053  84.0101 15.08826102 17809,6917.9230000000025,95.438,540.9580000000002,538.617,0.0
